CCSDS_OMM_VERS = 2.0
CREATION_DATE  = 
ORIGINATOR     = 

OBJECT_NAME    = STARLINK-37061
OBJECT_ID      = 2026-050U
CENTER_NAME    = EARTH
REF_FRAME      = TEME
TIME_SYSTEM    = UTC
MEAN_ELEMENT_THEORY = SGP/SGP4

EPOCH          = 2026-03-29T03:31:42.499488
MEAN_MOTION    = 15.80919407
ECCENTRICITY   = .000133
INCLINATION    = 53.1592
RA_OF_ASC_NODE = 184.1709
ARG_OF_PERICENTER = 24.3363
MEAN_ANOMALY   = 335.7723

EPHEMERIS_TYPE = 0
CLASSIFICATION_TYPE = U
NORAD_CAT_ID   = 68185
ELEMENT_SET_NO = 999
REV_AT_EPOCH   = 355
BSTAR          = .10134E-2
MEAN_MOTION_DOT = .204564E-2
MEAN_MOTION_DDOT = 0

CCSDS_OMM_VERS = 2.0
CREATION_DATE  = 
ORIGINATOR     = 

OBJECT_NAME    = STARLINK-37079
OBJECT_ID      = 2026-050V
CENTER_NAME    = EARTH
REF_FRAME      = TEME
TIME_SYSTEM    = UTC
MEAN_ELEMENT_THEORY = SGP/SGP4

EPOCH          = 2026-03-28T18:24:24.359904
MEAN_MOTION    = 15.81107962
ECCENTRICITY   = .00011589
INCLINATION    = 53.1590
RA_OF_ASC_NODE = 186.0669
ARG_OF_PERICENTER = 55.0847
MEAN_ANOMALY   = 305.0285

EPHEMERIS_TYPE = 0
CLASSIFICATION_TYPE = U
NORAD_CAT_ID   = 68186
ELEMENT_SET_NO = 999
REV_AT_EPOCH   = 349
BSTAR          = .27838746E-2
MEAN_MOTION_DOT = .594735E-2
MEAN_MOTION_DDOT = 0

CCSDS_OMM_VERS = 2.0
CREATION_DATE  = 
ORIGINATOR     = 

OBJECT_NAME    = STARLINK-37006
OBJECT_ID      = 2026-050W
CENTER_NAME    = EARTH
REF_FRAME      = TEME
TIME_SYSTEM    = UTC
MEAN_ELEMENT_THEORY = SGP/SGP4

EPOCH          = 2026-03-29T03:29:32.954784
MEAN_MOTION    = 15.80944511
ECCENTRICITY   = .000136
INCLINATION    = 53.1591
RA_OF_ASC_NODE = 184.1608
ARG_OF_PERICENTER = 21.2727
MEAN_ANOMALY   = 338.8352

EPHEMERIS_TYPE = 0
CLASSIFICATION_TYPE = U
NORAD_CAT_ID   = 68187
ELEMENT_SET_NO = 999
REV_AT_EPOCH   = 355
BSTAR          = .13234E-2
MEAN_MOTION_DOT = .269698E-2
MEAN_MOTION_DDOT = 0

CCSDS_OMM_VERS = 2.0
CREATION_DATE  = 
ORIGINATOR     = 

OBJECT_NAME    = STARLINK-36340
OBJECT_ID      = 2026-050X
CENTER_NAME    = EARTH
REF_FRAME      = TEME
TIME_SYSTEM    = UTC
MEAN_ELEMENT_THEORY = SGP/SGP4

EPOCH          = 2026-03-29T03:28:28.006176
MEAN_MOTION    = 15.80933420
ECCENTRICITY   = .0001549
INCLINATION    = 53.1594
RA_OF_ASC_NODE = 184.1558
ARG_OF_PERICENTER = 16.0494
MEAN_ANOMALY   = 344.0578

EPHEMERIS_TYPE = 0
CLASSIFICATION_TYPE = U
NORAD_CAT_ID   = 68188
ELEMENT_SET_NO = 999
REV_AT_EPOCH   = 345
BSTAR          = .11099E-2
MEAN_MOTION_DOT = .224779E-2
MEAN_MOTION_DDOT = 0

CCSDS_OMM_VERS = 2.0
CREATION_DATE  = 
ORIGINATOR     = 

OBJECT_NAME    = STARLINK-36305
OBJECT_ID      = 2026-050Y
CENTER_NAME    = EARTH
REF_FRAME      = TEME
TIME_SYSTEM    = UTC
MEAN_ELEMENT_THEORY = SGP/SGP4

EPOCH          = 2026-03-29T03:27:24.374304
MEAN_MOTION    = 15.80956019
ECCENTRICITY   = .0000715
INCLINATION    = 53.1593
RA_OF_ASC_NODE = 184.1509
ARG_OF_PERICENTER = 33.3888
MEAN_ANOMALY   = 326.7179

EPHEMERIS_TYPE = 0
CLASSIFICATION_TYPE = U
NORAD_CAT_ID   = 68189
ELEMENT_SET_NO = 999
REV_AT_EPOCH   = 345
BSTAR          = .17737E-2
MEAN_MOTION_DOT = .366033E-2
MEAN_MOTION_DDOT = 0

CCSDS_OMM_VERS = 2.0
CREATION_DATE  = 
ORIGINATOR     = 

OBJECT_NAME    = STARLINK-37071
OBJECT_ID      = 2026-050Z
CENTER_NAME    = EARTH
REF_FRAME      = TEME
TIME_SYSTEM    = UTC
MEAN_ELEMENT_THEORY = SGP/SGP4

EPOCH          = 2026-03-29T03:25:13.707264
MEAN_MOTION    = 15.80934673
ECCENTRICITY   = .000067
INCLINATION    = 53.1594
RA_OF_ASC_NODE = 184.1406
ARG_OF_PERICENTER = 48.2796
MEAN_ANOMALY   = 311.8284

EPHEMERIS_TYPE = 0
CLASSIFICATION_TYPE = U
NORAD_CAT_ID   = 68190
ELEMENT_SET_NO = 999
REV_AT_EPOCH   = 355
BSTAR          = .11845E-2
MEAN_MOTION_DOT = .240387E-2
MEAN_MOTION_DDOT = 0

CCSDS_OMM_VERS = 2.0
CREATION_DATE  = 
ORIGINATOR     = 

OBJECT_NAME    = STARLINK-37091
OBJECT_ID      = 2026-050AA
CENTER_NAME    = EARTH
REF_FRAME      = TEME
TIME_SYSTEM    = UTC
MEAN_ELEMENT_THEORY = SGP/SGP4

EPOCH          = 2026-03-29T03:24:08.801856
MEAN_MOTION    = 15.80948179
ECCENTRICITY   = .0000857
INCLINATION    = 53.1591
RA_OF_ASC_NODE = 184.1348
ARG_OF_PERICENTER = 30.1729
MEAN_ANOMALY   = 329.9343

EPHEMERIS_TYPE = 0
CLASSIFICATION_TYPE = U
NORAD_CAT_ID   = 68191
ELEMENT_SET_NO = 999
REV_AT_EPOCH   = 355
BSTAR          = .13049E-2
MEAN_MOTION_DOT = .265851E-2
MEAN_MOTION_DDOT = 0

CCSDS_OMM_VERS = 2.0
CREATION_DATE  = 
ORIGINATOR     = 

OBJECT_NAME    = STARLINK-37098
OBJECT_ID      = 2026-050AB
CENTER_NAME    = EARTH
REF_FRAME      = TEME
TIME_SYSTEM    = UTC
MEAN_ELEMENT_THEORY = SGP/SGP4

EPOCH          = 2026-03-29T03:23:03.924960
MEAN_MOTION    = 15.80902760
ECCENTRICITY   = .0000881
INCLINATION    = 53.1594
RA_OF_ASC_NODE = 184.1300
ARG_OF_PERICENTER = 57.2615
MEAN_ANOMALY   = 302.8492

EPHEMERIS_TYPE = 0
CLASSIFICATION_TYPE = U
NORAD_CAT_ID   = 68192
ELEMENT_SET_NO = 999
REV_AT_EPOCH   = 355
BSTAR          = .15247E-2
MEAN_MOTION_DOT = .311784E-2
MEAN_MOTION_DDOT = 0

CCSDS_OMM_VERS = 2.0
CREATION_DATE  = 
ORIGINATOR     = 

OBJECT_NAME    = STARLINK-37090
OBJECT_ID      = 2026-050AC
CENTER_NAME    = EARTH
REF_FRAME      = TEME
TIME_SYSTEM    = UTC
MEAN_ELEMENT_THEORY = SGP/SGP4

EPOCH          = 2026-03-29T03:20:54.578112
MEAN_MOTION    = 15.81057870
ECCENTRICITY   = .0001338
INCLINATION    = 53.1594
RA_OF_ASC_NODE = 184.1193
ARG_OF_PERICENTER = 10.9491
MEAN_ANOMALY   = 349.1560

EPHEMERIS_TYPE = 0
CLASSIFICATION_TYPE = U
NORAD_CAT_ID   = 68193
ELEMENT_SET_NO = 999
REV_AT_EPOCH   = 355
BSTAR          = .32679E-2
MEAN_MOTION_DOT = .705845E-2
MEAN_MOTION_DDOT = 0

CCSDS_OMM_VERS = 2.0
CREATION_DATE  = 
ORIGINATOR     = 

OBJECT_NAME    = STARLINK-37093
OBJECT_ID      = 2026-050AD
CENTER_NAME    = EARTH
REF_FRAME      = TEME
TIME_SYSTEM    = UTC
MEAN_ELEMENT_THEORY = SGP/SGP4

EPOCH          = 2026-03-29T03:26:18.418272
MEAN_MOTION    = 15.80922253
ECCENTRICITY   = .0001241
INCLINATION    = 53.1594
RA_OF_ASC_NODE = 184.1452
ARG_OF_PERICENTER = 22.5888
MEAN_ANOMALY   = 337.5189

EPHEMERIS_TYPE = 0
CLASSIFICATION_TYPE = U
NORAD_CAT_ID   = 68194
ELEMENT_SET_NO = 999
REV_AT_EPOCH   = 355
BSTAR          = .10616E-2
MEAN_MOTION_DOT = .214608E-2
MEAN_MOTION_DDOT = 0

CCSDS_OMM_VERS = 2.0
CREATION_DATE  = 
ORIGINATOR     = 

OBJECT_NAME    = STARLINK-37058
OBJECT_ID      = 2026-050AE
CENTER_NAME    = EARTH
REF_FRAME      = TEME
TIME_SYSTEM    = UTC
MEAN_ELEMENT_THEORY = SGP/SGP4

EPOCH          = 2026-03-29T03:21:59.272704
MEAN_MOTION    = 15.80921275
ECCENTRICITY   = .0000939
INCLINATION    = 53.1594
RA_OF_ASC_NODE = 184.1241
ARG_OF_PERICENTER = 44.9710
MEAN_ANOMALY   = 315.1389

EPHEMERIS_TYPE = 0
CLASSIFICATION_TYPE = U
NORAD_CAT_ID   = 68195
ELEMENT_SET_NO = 999
REV_AT_EPOCH   = 199
BSTAR          = .10663E-2
MEAN_MOTION_DOT = .215565E-2
MEAN_MOTION_DDOT = 0

CCSDS_OMM_VERS = 2.0
CREATION_DATE  = 
ORIGINATOR     = 

OBJECT_NAME    = YAOGAN-50 02
OBJECT_ID      = 2026-051A
CENTER_NAME    = EARTH
REF_FRAME      = TEME
TIME_SYSTEM    = UTC
MEAN_ELEMENT_THEORY = SGP/SGP4

EPOCH          = 2026-03-29T05:14:31.431840
MEAN_MOTION    = 13.83266368
ECCENTRICITY   = .0000775
INCLINATION    = 141.9870
RA_OF_ASC_NODE = 301.4020
ARG_OF_PERICENTER = 261.9564
MEAN_ANOMALY   = 98.1068

EPHEMERIS_TYPE = 0
CLASSIFICATION_TYPE = U
NORAD_CAT_ID   = 68196
ELEMENT_SET_NO = 999
REV_AT_EPOCH   = 191
BSTAR          = .72652E-4
MEAN_MOTION_DOT = .267E-5
MEAN_MOTION_DDOT = 0

